{
  "norad_id": 69041,
  "name": "STARLINK-37614",
  "history": [
    {
      "epoch": "2026-05-12T20:00:01.999008Z",
      "apogee_km": 303.13620107048246,
      "perigee_km": 301.4447168378747,
      "latitude_deg": -4.327982194966222,
      "longitude_deg": 176.89317104840597,
      "height_km": 306.1043336782122,
      "semi_major_axis_km": 6680.427458954178,
      "eccentricity": 0.0001266,
      "inclination_deg": 97.2888,
      "raan_deg": 346.9522,
      "arg_perigee_deg": 83.2564,
      "mean_anomaly_deg": 272.5505,
      "mean_motion_rev_day": 15.89997287
    }
  ]
}