STARLINK-37614          
1 69041U 26101S   26132.83335648 -.02183819  12610-2 -74231-2 0  9999
2 69041  97.2888 346.9522 0001266  83.2564 272.5505 15.89997287  2281
